
# Worst residual: 30.00 km
# MJD 58566.000000 (2019 Mar 24  0:00)
1983-020D = NORAD 20413 = ASTRON booster
1 20413U 83020D   19083.49919926  .00000000  00000-0  00000-0 0  6338
2 20413 032.6394 237.8474 8417984 190.3214 026.1934 00.24694504    04

# Worst residual: 15.71 km
# MJD 58567.000000 (2019 Mar 25  0:00)
1983-020D = NORAD 20413 = ASTRON booster
1 20413U 83020D   19084.49919926  .00000000  00000-0  00000-0 0  6339
2 20413 032.4653 237.8580 8420591 190.3526 114.9590 00.24681738    01

# Worst residual: 13.65 km
# MJD 58568.000000 (2019 Mar 26  0:00)
1983-020D = NORAD 20413 = ASTRON booster
1 20413U 83020D   19085.49919926  .00000000  00000-0  00000-0 0  6330
2 20413 032.1279 237.7660 8427590 190.4773 203.5259 00.24679041    02

# Worst residual: 11.02 km
# MJD 58569.000000 (2019 Mar 27  0:00)
1983-020D = NORAD 20413 = ASTRON booster
1 20413U 83020D   19086.49919926  .00000000  00000-0  00000-0 0  6331
2 20413 031.9352 237.6345 8433272 190.5982 292.4071 00.24672867    05

# Worst residual: 17.48 km
# MJD 58570.000000 (2019 Mar 28  0:00)
1983-020D = NORAD 20413 = ASTRON booster
1 20413U 83020D   19087.49919926  .00000000  00000-0  00000-0 0  6332
2 20413 031.8663 237.5599 8438979 190.7225 021.2345 00.24681821    02

# Worst residual: 6.18 km
# MJD 58571.000000 (2019 Mar 29  0:00)
1983-020D = NORAD 20413 = ASTRON booster
1 20413U 83020D   19088.49919926  .00000000  00000-0  00000-0 0  6333
2 20413 031.8176 237.5347 8438886 190.7391 110.2854 00.24723672    08

# Worst residual: 5.50 km
# MJD 58572.000000 (2019 Mar 30  0:00)
1983-020D = NORAD 20413 = ASTRON booster
1 20413U 83020D   19089.49919926  .00000000  00000-0  00000-0 0  6334
2 20413 031.8387 237.5147 8441813 190.7483 199.3931 00.24730229    06

# Worst residual: 4.44 km
# MJD 58573.000000 (2019 Mar 31  0:00)
1983-020D = NORAD 20413 = ASTRON booster
1 20413U 83020D   19090.49919926  .00000000  00000-0  00000-0 0  6336
2 20413 031.8194 237.4990 8444442 190.7672 288.4189 00.24727740    07

# Worst residual: 20.56 km
# MJD 58574.000000 (2019 Apr  1  0:00)
1983-020D = NORAD 20413 = ASTRON booster
1 20413U 83020D   19091.49919926  .00000000  00000-0  00000-0 0  6337
2 20413 031.7652 237.4499 8442915 190.7971 017.4105 00.24766925    00

# Worst residual: 6.89 km
# MJD 58575.000000 (2019 Apr  2  0:00)
1983-020D = NORAD 20413 = ASTRON booster
1 20413U 83020D   19092.49919926  .00000000  00000-0  00000-0 0  6338
2 20413 031.7396 237.4050 8452237 190.8335 106.2556 00.24721821    04

# Worst residual: 1.72 km
# MJD 58576.000000 (2019 Apr  3  0:00)
1983-020D = NORAD 20413 = ASTRON booster
1 20413U 83020D   19093.49919926  .00000000  00000-0  00000-0 0  6339
2 20413 031.7095 237.3728 8454940 190.8887 195.1087 00.24715112    08

# Worst residual: 13.54 km
# MJD 58577.000000 (2019 Apr  4  0:00)
1983-020D = NORAD 20413 = ASTRON booster
1 20413U 83020D   19094.49919926  .00000000  00000-0  00000-0 0  6330
2 20413 031.6600 237.3401 8455596 190.8992 284.1362 00.24695559    09

# Worst residual: 25.33 km
# MJD 58578.000000 (2019 Apr  5  0:00)
1983-020D = NORAD 20413 = ASTRON booster
1 20413U 83020D   19095.49919926  .00000000  00000-0  00000-0 0  6331
2 20413 031.6245 237.3303 8461090 190.9667 013.0560 00.24712467    08

# Worst residual: 7.33 km
# MJD 58579.000000 (2019 Apr  6  0:00)
1983-020D = NORAD 20413 = ASTRON booster
1 20413U 83020D   19096.49919926  .00000000  00000-0  00000-0 0  6332
2 20413 031.5599 237.2969 8465629 190.9828 101.9776 00.24718083    03

# Worst residual: 7.31 km
# MJD 58580.000000 (2019 Apr  7  0:00)
1983-020D = NORAD 20413 = ASTRON booster
1 20413U 83020D   19097.49919926  .00000000  00000-0  00000-0 0  6333
2 20413 031.4872 237.2595 8462756 191.0461 190.8616 00.24702472    09

# Worst residual: 24.53 km
# MJD 58581.000000 (2019 Apr  8  0:00)
1983-020D = NORAD 20413 = ASTRON booster
1 20413U 83020D   19098.49919926  .00000000  00000-0  00000-0 0  6334
2 20413 031.4759 237.2543 8459532 190.9947 279.9605 00.24659728    03

# Worst residual: 42.72 km
# MJD 58582.000000 (2019 Apr  9  0:00)
1983-020D = NORAD 20413 = ASTRON booster
1 20413U 83020D   19099.49919926  .00000000  00000-0  00000-0 0  6335
2 20413 031.4333 237.2365 8472095 191.0980 008.7735 00.24607817    05

# Worst residual: 5.51 km
# MJD 58583.000000 (2019 Apr 10  0:00)
1983-020D = NORAD 20413 = ASTRON booster
1 20413U 83020D   19100.49919926  .00000000  00000-0  00000-0 0  6338
2 20413 031.3731 237.2168 8467810 191.1199 097.7717 00.24702276    02

# Worst residual: 5.23 km
# MJD 58584.000000 (2019 Apr 11  0:00)
1983-020D = NORAD 20413 = ASTRON booster
1 20413U 83020D   19101.49919926  .00000000  00000-0  00000-0 0  6339
2 20413 031.4103 237.1953 8469987 191.1500 186.6797 00.24703478    01

# Worst residual: 5.09 km
# MJD 58585.000000 (2019 Apr 12  0:00)
1983-020D = NORAD 20413 = ASTRON booster
1 20413U 83020D   19102.49919926  .00000000  00000-0  00000-0 0  6330
2 20413 031.4443 237.2098 8472872 191.1655 275.5092 00.24711149    07

# Worst residual: 14.47 km
# MJD 58586.000000 (2019 Apr 13  0:00)
1983-020D = NORAD 20413 = ASTRON booster
1 20413U 83020D   19103.49919926  .00000000  00000-0  00000-0 0  6331
2 20413 031.3871 237.1488 8471899 191.2389 004.4229 00.24768826    01

# Worst residual: 8.70 km
# MJD 58587.000000 (2019 Apr 14  0:00)
1983-020D = NORAD 20413 = ASTRON booster
1 20413U 83020D   19104.49919926  .00000000  00000-0  00000-0 0  6332
2 20413 031.3232 237.1206 8477352 191.2724 093.4029 00.24739345    03

# Worst residual: 5.91 km
# MJD 58588.000000 (2019 Apr 15  0:00)
1983-020D = NORAD 20413 = ASTRON booster
1 20413U 83020D   19105.49919926  .00000000  00000-0  00000-0 0  6333
2 20413 031.2263 237.0756 8476727 191.3565 182.2543 00.24721029    02

# Worst residual: 9.21 km
# MJD 58589.000000 (2019 Apr 16  0:00)
1983-020D = NORAD 20413 = ASTRON booster
1 20413U 83020D   19106.49919926  .00000000  00000-0  00000-0 0  6334
2 20413 031.0804 236.9791 8472799 191.4319 271.1951 00.24704940    05

# Worst residual: 22.53 km
# MJD 58590.000000 (2019 Apr 17  0:00)
1983-020D = NORAD 20413 = ASTRON booster
1 20413U 83020D   19107.49919926  .00000000  00000-0  00000-0 0  6335
2 20413 031.0158 236.9261 8473261 191.4880 000.0984 00.24722990    07

# Worst residual: 15.53 km
# MJD 58591.000000 (2019 Apr 18  0:00)
1983-020D = NORAD 20413 = ASTRON booster
1 20413U 83020D   19108.49919926  .00000000  00000-0  00000-0 0  6336
2 20413 031.0071 236.8548 8484010 191.4864 088.9456 00.24711834    08

# Worst residual: 8.47 km
# MJD 58592.000000 (2019 Apr 19  0:00)
1983-020D = NORAD 20413 = ASTRON booster
1 20413U 83020D   19109.49919926  .00000000  00000-0  00000-0 0  6337
2 20413 031.0252 236.8209 8496300 191.5058 177.8273 00.24723310    01
